{
  "type": "FeatureCollection",
  "features": [
    {
      "type": "Feature",
      "properties": {
        "norad_id": 66647,
        "name": "COSMOS 2597 (RODNIK-S 22)",
        "group": "last-30-days",
        "lat": -15.76156701377537,
        "lon": 110.36898330349698,
        "alt_km": 1503.9841115069976,
        "timestamp": "2025-12-09T20:37:08.057079+00:00",
        "meta_object_name": "COSMOS 2597 (RODNIK-S 22)",
        "meta_object_id": "2025-273A",
        "meta_epoch": "2025-12-09T13:46:00.813792",
        "meta_mean_motion": 12.41951225,
        "meta_eccentricity": 0.00079578,
        "meta_inclination": 82.4984,
        "meta_ra_of_asc_node": 288.4151,
        "meta_arg_of_pericenter": 296.7255,
        "meta_mean_anomaly": 63.301,
        "meta_ephemeris_type": 0,
        "meta_classification_type": "U",
        "meta_norad_cat_id": 66647,
        "meta_element_set_no": 999,
        "meta_rev_at_epoch": 174,
        "meta_bstar": 0.00019626222,
        "meta_mean_motion_dot": 3.7e-07,
        "meta_mean_motion_ddot": 0,
        "tle_line1": "1 66647U 25273A   25343.57362053  .00000037  00000+0  19626-3 0  9992",
        "tle_line2": "2 66647  82.4984 288.4151 0007957 296.7255  63.3010 12.41951225  1746"
      },
      "geometry": {
        "type": "Point",
        "coordinates": [
          110.36898330349698,
          -15.76156701377537
        ]
      }
    },
    {
      "type": "Feature",
      "properties": {
        "norad_id": 66648,
        "name": "COSMOS 2598 (RODNIK-S 23)",
        "group": "last-30-days",
        "lat": -39.336313193265916,
        "lon": 114.43665850842197,
        "alt_km": 1496.3442030111173,
        "timestamp": "2025-12-09T20:37:08.057090+00:00",
        "meta_object_name": "COSMOS 2598 (RODNIK-S 23)",
        "meta_object_id": "2025-273B",
        "meta_epoch": "2025-12-09T15:34:33.720960",
        "meta_mean_motion": 12.42861544,
        "meta_eccentricity": 0.00072634,
        "meta_inclination": 82.5025,
        "meta_ra_of_asc_node": 288.372,
        "meta_arg_of_pericenter": 258.6843,
        "meta_mean_anomaly": 101.3421,
        "meta_ephemeris_type": 0,
        "meta_classification_type": "U",
        "meta_norad_cat_id": 66648,
        "meta_element_set_no": 999,
        "meta_rev_at_epoch": 175,
        "meta_bstar": -8.9058965e-05,
        "meta_mean_motion_dot": -2e-08,
        "meta_mean_motion_ddot": 0,
        "tle_line1": "1 66648U 25273B   25343.64900140 -.00000002  00000+0 -89059-4 0  9998",
        "tle_line2": "2 66648  82.5025 288.3720 0007263 258.6843 101.3421 12.42861544  1750"
      },
      "geometry": {
        "type": "Point",
        "coordinates": [
          114.43665850842197,
          -39.336313193265916
        ]
      }
    },
    {
      "type": "Feature",
      "properties": {
        "norad_id": 66649,
        "name": "COSMOS 2599 (RODNIK-S 24)",
        "group": "last-30-days",
        "lat": -1.6287974536784873,
        "lon": 108.46773764054927,
        "alt_km": 1506.1294433479006,
        "timestamp": "2025-12-09T20:37:08.057102+00:00",
        "meta_object_name": "COSMOS 2599 (RODNIK-S 24)",
        "meta_object_id": "2025-273C",
        "meta_epoch": "2025-12-09T13:50:31.416000",
        "meta_mean_motion": 12.41671791,
        "meta_eccentricity": 0.00081698,
        "meta_inclination": 82.5025,
        "meta_ra_of_asc_node": 288.4283,
        "meta_arg_of_pericenter": 307.2434,
        "meta_mean_anomaly": 52.7899,
        "meta_ephemeris_type": 0,
        "meta_classification_type": "U",
        "meta_norad_cat_id": 66649,
        "meta_element_set_no": 999,
        "meta_rev_at_epoch": 174,
        "meta_bstar": 0.0001193593,
        "meta_mean_motion_dot": 2.6e-07,
        "meta_mean_motion_ddot": 0,
        "tle_line1": "1 66649U 25273C   25343.57675250  .00000026  00000+0  11936-3 0  9994",
        "tle_line2": "2 66649  82.5025 288.4283 0008169 307.2434  52.7899 12.41671791  1748"
      },
      "geometry": {
        "type": "Point",
        "coordinates": [
          108.46773764054927,
          -1.6287974536784873
        ]
      }
    },
    {
      "type": "Feature",
      "properties": {
        "norad_id": 66650,
        "name": "BEE-1000",
        "group": "last-30-days",
        "lat": -46.792647081886095,
        "lon": -80.57644841867251,
        "alt_km": 594.9194809889732,
        "timestamp": "2025-12-09T20:37:08.057113+00:00",
        "meta_object_name": "BEE-1000",
        "meta_object_id": "2025-274A",
        "meta_epoch": "2025-12-09T06:20:27.921120",
        "meta_mean_motion": 14.91642041,
        "meta_eccentricity": 0.001044,
        "meta_inclination": 97.7386,
        "meta_ra_of_asc_node": 270.5157,
        "meta_arg_of_pericenter": 264.9451,
        "meta_mean_anomaly": 95.0576,
        "meta_ephemeris_type": 0,
        "meta_classification_type": "U",
        "meta_norad_cat_id": 66650,
        "meta_element_set_no": 999,
        "meta_rev_at_epoch": 188,
        "meta_bstar": 0.00027961,
        "meta_mean_motion_dot": 2.756e-05,
        "meta_mean_motion_ddot": 0,
        "tle_line1": "1 66650U 25274A   25343.26421205  .00002756  00000+0  27961-3 0  9999",
        "tle_line2": "2 66650  97.7386 270.5157 0010440 264.9451  95.0576 14.91642041  1883"
      },
      "geometry": {
        "type": "Point",
        "coordinates": [
          -80.57644841867251,
          -46.792647081886095
        ]
      }
    },
    {
      "type": "Feature",
      "properties": {
        "norad_id": 66651,
        "name": "2025-274B",
        "group": "last-30-days",
        "lat": -43.203555262335804,
        "lon": -81.56261836487457,
        "alt_km": 594.7526307357102,
        "timestamp": "2025-12-09T20:37:08.057125+00:00",
        "meta_object_name": "2025-274B",
        "meta_object_id": "2025-274B",
        "meta_epoch": "2025-12-09T07:56:08.403648",
        "meta_mean_motion": 14.91755081,
        "meta_eccentricity": 0.00107464,
        "meta_inclination": 97.7381,
        "meta_ra_of_asc_node": 270.5817,
        "meta_arg_of_pericenter": 263.8603,
        "meta_mean_anomaly": 96.1392,
        "meta_ephemeris_type": 0,
        "meta_classification_type": "U",
        "meta_norad_cat_id": 66651,
        "meta_element_set_no": 999,
        "meta_rev_at_epoch": 189,
        "meta_bstar": 0.00057036461,
        "meta_mean_motion_dot": 5.698e-05,
        "meta_mean_motion_ddot": 0,
        "tle_line1": "1 66651U 25274B   25343.33065282  .00005698  00000+0  57036-3 0  9991",
        "tle_line2": "2 66651  97.7381 270.5817 0010746 263.8603  96.1392 14.91755081  1896"
      },
      "geometry": {
        "type": "Point",
        "coordinates": [
          -81.56261836487457,
          -43.203555262335804
        ]
      }
    },
    {
      "type": "Feature",
      "properties": {
        "norad_id": 66652,
        "name": "2025-274C",
        "group": "last-30-days",
        "lat": -36.71085667855023,
        "lon": -83.07601363231906,
        "alt_km": 594.2142703229874,
        "timestamp": "2025-12-09T20:37:08.057135+00:00",
        "meta_object_name": "2025-274C",
        "meta_object_id": "2025-274C",
        "meta_epoch": "2025-12-09T12:44:10.520448",
        "meta_mean_motion": 14.91874076,
        "meta_eccentricity": 0.00104068,
        "meta_inclination": 97.7387,
        "meta_ra_of_asc_node": 270.7817,
        "meta_arg_of_pericenter": 269.9894,
        "meta_mean_anomaly": 90.0132,
        "meta_ephemeris_type": 0,
        "meta_classification_type": "U",
        "meta_norad_cat_id": 66652,
        "meta_element_set_no": 999,
        "meta_rev_at_epoch": 192,
        "meta_bstar": 0.00037452279,
        "meta_mean_motion_dot": 3.732e-05,
        "meta_mean_motion_ddot": 0,
        "tle_line1": "1 66652U 25274C   25343.53067732  .00003732  00000+0  37452-3 0  9993",
        "tle_line2": "2 66652  97.7387 270.7817 0010406 269.9894  90.0132 14.91874076  1922"
      },
      "geometry": {
        "type": "Point",
        "coordinates": [
          -83.07601363231906,
          -36.71085667855023
        ]
      }
    },
    {
      "type": "Feature",
      "properties": {
        "norad_id": 66653,
        "name": "2025-274D",
        "group": "last-30-days",
        "lat": -36.38314183762443,
        "lon": -83.14573497376787,
        "alt_km": 594.3300725507024,
        "timestamp": "2025-12-09T20:37:08.057161+00:00",
        "meta_object_name": "2025-274D",
        "meta_object_id": "2025-274D",
        "meta_epoch": "2025-12-09T12:44:05.312256",
        "meta_mean_motion": 14.91878474,
        "meta_eccentricity": 0.00112798,
        "meta_inclination": 97.7386,
        "meta_ra_of_asc_node": 270.7814,
        "meta_arg_of_pericenter": 265.8961,
        "meta_mean_anomaly": 94.0969,
        "meta_ephemeris_type": 0,
        "meta_classification_type": "U",
        "meta_norad_cat_id": 66653,
        "meta_element_set_no": 999,
        "meta_rev_at_epoch": 192,
        "meta_bstar": 0.00038978067,
        "meta_mean_motion_dot": 3.888e-05,
        "meta_mean_motion_ddot": 0,
        "tle_line1": "1 66653U 25274D   25343.53061704  .00003888  00000+0  38978-3 0  9993",
        "tle_line2": "2 66653  97.7386 270.7814 0011279 265.8961  94.0969 14.91878474  1926"
      },
      "geometry": {
        "type": "Point",
        "coordinates": [
          -83.14573497376787,
          -36.38314183762443
        ]
      }
    }
  ]
}